[{"OBJECT_NAME":"STARLINK-2150","OBJECT_ID":"2021-017T","EPOCH":"2025-11-28T04:39:37.211616","MEAN_MOTION":15.06400863,"ECCENTRICITY":0.000141,"INCLINATION":53.0548,"RA_OF_ASC_NODE":322.2494,"ARG_OF_PERICENTER":89.5133,"MEAN_ANOMALY":270.6018,"EPHEMERIS_TYPE":0,"CLASSIFICATION_TYPE":"U","NORAD_CAT_ID":47739,"ELEMENT_SET_NO":999,"REV_AT_EPOCH":26227,"BSTAR":0.00033957,"MEAN_MOTION_DOT":4.78e-5,"MEAN_MOTION_DDOT":0},{"OBJECT_NAME":"STARLINK-2156","OBJECT_ID":"2021-017W","EPOCH":"2025-11-28T01:39:48.635424","MEAN_MOTION":15.0640111,"ECCENTRICITY":0.0001302,"INCLINATION":53.0543,"RA_OF_ASC_NODE":297.8098,"ARG_OF_PERICENTER":97.0496,"MEAN_ANOMALY":263.0641,"EPHEMERIS_TYPE":0,"CLASSIFICATION_TYPE":"U","NORAD_CAT_ID":47742,"ELEMENT_SET_NO":999,"REV_AT_EPOCH":26260,"BSTAR":-1.6944e-5,"MEAN_MOTION_DOT":-5.34e-6,"MEAN_MOTION_DDOT":0},{"OBJECT_NAME":"STARLINK-2159","OBJECT_ID":"2021-017Z","EPOCH":"2025-11-28T02:26:16.053216","MEAN_MOTION":15.06393603,"ECCENTRICITY":0.0001479,"INCLINATION":53.0548,"RA_OF_ASC_NODE":307.6648,"ARG_OF_PERICENTER":81.211,"MEAN_ANOMALY":278.9046,"EPHEMERIS_TYPE":0,"CLASSIFICATION_TYPE":"U","NORAD_CAT_ID":47745,"ELEMENT_SET_NO":999,"REV_AT_EPOCH":26241,"BSTAR":0.00015763,"MEAN_MOTION_DOT":2.067e-5,"MEAN_MOTION_DDOT":0},{"OBJECT_NAME":"STARLINK-2160","OBJECT_ID":"2021-017AA","EPOCH":"2025-11-28T02:15:39.242016","MEAN_MOTION":15.06409652,"ECCENTRICITY":0.0001669,"INCLINATION":53.0544,"RA_OF_ASC_NODE":307.6979,"ARG_OF_PERICENTER":95.2811,"MEAN_ANOMALY":264.8368,"EPHEMERIS_TYPE":0,"CLASSIFICATION_TYPE":"U","NORAD_CAT_ID":47746,"ELEMENT_SET_NO":999,"REV_AT_EPOCH":26240,"BSTAR":0.00020932,"MEAN_MOTION_DOT":2.838e-5,"MEAN_MOTION_DDOT":0},{"OBJECT_NAME":"STARLINK-2161","OBJECT_ID":"2021-017AB","EPOCH":"2025-11-28T02:11:40.612128","MEAN_MOTION":15.06400407,"ECCENTRICITY":0.000145,"INCLINATION":53.0546,"RA_OF_ASC_NODE":297.7109,"ARG_OF_PERICENTER":93.3838,"MEAN_ANOMALY":266.7317,"EPHEMERIS_TYPE":0,"CLASSIFICATION_TYPE":"U","NORAD_CAT_ID":47747,"ELEMENT_SET_NO":999,"REV_AT_EPOCH":26258,"BSTAR":0.0004893,"MEAN_MOTION_DOT":7.014e-5,"MEAN_MOTION_DDOT":0},{"OBJECT_NAME":"STARLINK-2162","OBJECT_ID":"2021-017AC","EPOCH":"2025-11-28T02:01:03.321408","MEAN_MOTION":15.06408734,"ECCENTRICITY":9.45e-5,"INCLINATION":53.0552,"RA_OF_ASC_NODE":297.7428,"ARG_OF_PERICENTER":100.176,"MEAN_ANOMALY":259.9336,"EPHEMERIS_TYPE":0,"CLASSIFICATION_TYPE":"U","NORAD_CAT_ID":47748,"ELEMENT_SET_NO":999,"REV_AT_EPOCH":26255,"BSTAR":0.00013229,"MEAN_MOTION_DOT":1.69e-5,"MEAN_MOTION_DDOT":0},{"OBJECT_NAME":"STARLINK-2163","OBJECT_ID":"2021-017AD","EPOCH":"2025-11-28T03:57:49.366944","MEAN_MOTION":15.06431872,"ECCENTRICITY":0.0001113,"INCLINATION":53.0542,"RA_OF_ASC_NODE":297.3788,"ARG_OF_PERICENTER":97.8239,"MEAN_ANOMALY":262.2876,"EPHEMERIS_TYPE":0,"CLASSIFICATION_TYPE":"U","NORAD_CAT_ID":47749,"ELEMENT_SET_NO":999,"REV_AT_EPOCH":26256,"BSTAR":0.00081359,"MEAN_MOTION_DOT":0.00011868,"MEAN_MOTION_DDOT":0},{"OBJECT_NAME":"STARLINK-2164","OBJECT_ID":"2021-017AE","EPOCH":"2025-11-28T05:01:30.770688","MEAN_MOTION":15.06406775,"ECCENTRICITY":0.0001336,"INCLINATION":53.0547,"RA_OF_ASC_NODE":297.1799,"ARG_OF_PERICENTER":91.6068,"MEAN_ANOMALY":268.5074,"EPHEMERIS_TYPE":0,"CLASSIFICATION_TYPE":"U","NORAD_CAT_ID":47750,"ELEMENT_SET_NO":999,"REV_AT_EPOCH":26257,"BSTAR":0.00024182,"MEAN_MOTION_DOT":3.323e-5,"MEAN_MOTION_DDOT":0},{"OBJECT_NAME":"STARLINK-2169","OBJECT_ID":"2021-017AG","EPOCH":"2025-11-28T01:47:08.057184","MEAN_MOTION":15.06403263,"ECCENTRICITY":0.00017,"INCLINATION":53.0548,"RA_OF_ASC_NODE":302.786,"ARG_OF_PERICENTER":98.6752,"MEAN_ANOMALY":261.4429,"EPHEMERIS_TYPE":0,"CLASSIFICATION_TYPE":"U","NORAD_CAT_ID":47752,"ELEMENT_SET_NO":999,"REV_AT_EPOCH":26253,"BSTAR":0.00080011,"MEAN_MOTION_DOT":0.00011657,"MEAN_MOTION_DDOT":0},{"OBJECT_NAME":"STARLINK-2170","OBJECT_ID":"2021-017AH","EPOCH":"2025-11-28T04:23:02.363136","MEAN_MOTION":15.06399315,"ECCENTRICITY":0.0001577,"INCLINATION":53.0542,"RA_OF_ASC_NODE":307.2964,"ARG_OF_PERICENTER":107.9943,"MEAN_ANOMALY":252.1217,"EPHEMERIS_TYPE":0,"CLASSIFICATION_TYPE":"U","NORAD_CAT_ID":47753,"ELEMENT_SET_NO":999,"REV_AT_EPOCH":26247,"BSTAR":0.00014937,"MEAN_MOTION_DOT":1.944e-5,"MEAN_MOTION_DDOT":0},{"OBJECT_NAME":"STARLINK-2171","OBJECT_ID":"2021-017AJ","EPOCH":"2025-11-28T04:41:53.022912","MEAN_MOTION":15.4250061,"ECCENTRICITY":0.0007415,"INCLINATION":53.0548,"RA_OF_ASC_NODE":299.9594,"ARG_OF_PERICENTER":62.4403,"MEAN_ANOMALY":297.7354,"EPHEMERIS_TYPE":0,"CLASSIFICATION_TYPE":"U","NORAD_CAT_ID":47754,"ELEMENT_SET_NO":999,"REV_AT_EPOCH":26254,"BSTAR":0.003217,"MEAN_MOTION_DOT":0.00143987,"MEAN_MOTION_DDOT":0},{"OBJECT_NAME":"STARLINK-2178","OBJECT_ID":"2021-017AQ","EPOCH":"2025-11-27T08:54:01.656000","MEAN_MOTION":15.06406512,"ECCENTRICITY":0.00016777,"INCLINATION":53.0542,"RA_OF_ASC_NODE":320.9446,"ARG_OF_PERICENTER":84.2923,"MEAN_ANOMALY":275.8257,"EPHEMERIS_TYPE":0,"CLASSIFICATION_TYPE":"U","NORAD_CAT_ID":47760,"ELEMENT_SET_NO":999,"REV_AT_EPOCH":26219,"BSTAR":0.00048811928,"MEAN_MOTION_DOT":6.998e-5,"MEAN_MOTION_DDOT":0},{"OBJECT_NAME":"STARLINK-2180","OBJECT_ID":"2021-017AS","EPOCH":"2025-11-27T08:40:04.510848","MEAN_MOTION":15.06392546,"ECCENTRICITY":0.00015207,"INCLINATION":53.0557,"RA_OF_ASC_NODE":325.9985,"ARG_OF_PERICENTER":91.7851,"MEAN_ANOMALY":268.3312,"EPHEMERIS_TYPE":0,"CLASSIFICATION_TYPE":"U","NORAD_CAT_ID":47762,"ELEMENT_SET_NO":999,"REV_AT_EPOCH":26211,"BSTAR":1.9550032e-5,"MEAN_MOTION_DOT":1.0e-7,"MEAN_MOTION_DDOT":0},{"OBJECT_NAME":"STARLINK-2185","OBJECT_ID":"2021-017AX","EPOCH":"2025-11-28T04:28:20.894016","MEAN_MOTION":15.06403964,"ECCENTRICITY":0.0001545,"INCLINATION":53.055,"RA_OF_ASC_NODE":307.2841,"ARG_OF_PERICENTER":78.2176,"MEAN_ANOMALY":281.8986,"EPHEMERIS_TYPE":0,"CLASSIFICATION_TYPE":"U","NORAD_CAT_ID":47767,"ELEMENT_SET_NO":999,"REV_AT_EPOCH":26248,"BSTAR":0.00036931,"MEAN_MOTION_DOT":5.224e-5,"MEAN_MOTION_DDOT":0},{"OBJECT_NAME":"STARLINK-2193","OBJECT_ID":"2021-017BA","EPOCH":"2025-11-28T04:15:42.493824","MEAN_MOTION":15.06420092,"ECCENTRICITY":0.0001409,"INCLINATION":53.0545,"RA_OF_ASC_NODE":302.3237,"ARG_OF_PERICENTER":93.405,"MEAN_ANOMALY":266.71,"EPHEMERIS_TYPE":0,"CLASSIFICATION_TYPE":"U","NORAD_CAT_ID":47770,"ELEMENT_SET_NO":999,"REV_AT_EPOCH":26252,"BSTAR":0.00029658,"MEAN_MOTION_DOT":4.141e-5,"MEAN_MOTION_DDOT":0},{"OBJECT_NAME":"STARLINK-2194","OBJECT_ID":"2021-017BB","EPOCH":"2025-11-28T04:31:40.056384","MEAN_MOTION":15.06402774,"ECCENTRICITY":0.0001442,"INCLINATION":53.0545,"RA_OF_ASC_NODE":302.2739,"ARG_OF_PERICENTER":90.81,"MEAN_ANOMALY":269.3054,"EPHEMERIS_TYPE":0,"CLASSIFICATION_TYPE":"U","NORAD_CAT_ID":47771,"ELEMENT_SET_NO":999,"REV_AT_EPOCH":26253,"BSTAR":0.00041653,"MEAN_MOTION_DOT":5.929e-5,"MEAN_MOTION_DDOT":0}]
