STARLINK-2150           
1 47739U 21017T   25332.19418069  .00004780  00000+0  33957-3 0  9992
2 47739  53.0548 322.2494 0001410  89.5133 270.6018 15.06400863262274
STARLINK-2156           
1 47742U 21017W   25332.06931291 -.00000534  00000+0 -16944-4 0  9992
2 47742  53.0543 297.8098 0001302  97.0496 263.0641 15.06401110262607
STARLINK-2159           
1 47745U 21017Z   25332.10157469  .00002067  00000+0  15763-3 0  9995
2 47745  53.0548 307.6648 0001479  81.2110 278.9046 15.06393603262419
STARLINK-2160           
1 47746U 21017AA  25332.09420419  .00002838  00000+0  20932-3 0  9992
2 47746  53.0544 307.6979 0001669  95.2811 264.8368 15.06409652262409
STARLINK-2161           
1 47747U 21017AB  25332.09144227  .00007014  00000+0  48930-3 0  9992
2 47747  53.0546 297.7109 0001450  93.3838 266.7317 15.06400407262585
STARLINK-2162           
1 47748U 21017AC  25332.08406622  .00001690  00000+0  13229-3 0  9999
2 47748  53.0552 297.7428 0000945 100.1760 259.9336 15.06408734262559
STARLINK-2163           
1 47749U 21017AD  25332.16515471  .00011868  00000+0  81359-3 0  9999
2 47749  53.0542 297.3788 0001113  97.8239 262.2876 15.06431872262561
STARLINK-2164           
1 47750U 21017AE  25332.20938392  .00003323  00000+0  24182-3 0  9995
2 47750  53.0547 297.1799 0001336  91.6068 268.5074 15.06406775262571
STARLINK-2169           
1 47752U 21017AG  25332.07439881  .00011657  00000+0  80011-3 0  9993
2 47752  53.0548 302.7860 0001700  98.6752 261.4429 15.06403263262539
STARLINK-2170           
1 47753U 21017AH  25332.18266624  .00001944  00000+0  14937-3 0  9991
2 47753  53.0542 307.2964 0001577 107.9943 252.1217 15.06399315262474
STARLINK-2171           
1 47754U 21017AJ  25332.19575258  .00143987  00000+0  32170-2 0  9991
2 47754  53.0548 299.9594 0007415  62.4403 297.7354 15.42500610262547
STARLINK-2178           
1 47760U 21017AQ  25331.37085250  .00006998  00000+0  48812-3 0  9996
2 47760  53.0542 320.9446 0001677  84.2923 275.8257 15.06406512262198
STARLINK-2180           
1 47762U 21017AS  25331.36116332  .00000010  00000+0  19550-4 0  9990
2 47762  53.0557 325.9985 0001520  91.7851 268.3312 15.06392546262111
STARLINK-2185           
1 47767U 21017AX  25332.18635294  .00005224  00000+0  36931-3 0  9992
2 47767  53.0550 307.2841 0001545  78.2176 281.8986 15.06403964262484
STARLINK-2193           
1 47770U 21017BA  25332.17757516  .00004141  00000+0  29658-3 0  9992
2 47770  53.0545 302.3237 0001409  93.4050 266.7100 15.06420092262522
STARLINK-2194           
1 47771U 21017BB  25332.18865806  .00005929  00000+0  41653-3 0  9990
2 47771  53.0545 302.2739 0001442  90.8100 269.3054 15.06402774262538
